{
    "links": {
        "self": "http://www.neowsapp.com/rest/v1/neo/3802079?api_key=iIulBulltgU6a56xZRHN4H3l9WmuAYTsLGpBGhQ2"
    },
    "id": "3802079",
    "neo_reference_id": "3802079",
    "name": "(2018 FK4)",
    "designation": "2018 FK4",
    "nasa_jpl_url": "http://ssd.jpl.nasa.gov/sbdb.cgi?sstr=3802079",
    "absolute_magnitude_h": 24.5,
    "estimated_diameter": {
        "kilometers": {
            "estimated_diameter_min": 0.0334622374,
            "estimated_diameter_max": 0.0748238376
        },
        "meters": {
            "estimated_diameter_min": 33.4622374455,
            "estimated_diameter_max": 74.8238376074
        },
        "miles": {
            "estimated_diameter_min": 0.0207924639,
            "estimated_diameter_max": 0.0464933628
        },
        "feet": {
            "estimated_diameter_min": 109.7842471007,
            "estimated_diameter_max": 245.4850393757
        }
    },
    "is_potentially_hazardous_asteroid": false,
    "close_approach_data": [
        {
            "close_approach_date": "1942-01-31",
            "close_approach_date_full": "1942-Jan-31 23:36",
            "epoch_date_close_approach": -880935840000,
            "relative_velocity": {
                "kilometers_per_second": "8.8421354889",
                "kilometers_per_hour": "31831.6877598607",
                "miles_per_hour": "19778.972875009"
            },
            "miss_distance": {
                "astronomical": "1.2278102523",
                "lunar": "477.6181881447",
                "kilometers": "183677798.508242601",
                "miles": "114132091.6176098538"
            },
            "orbiting_body": "Juptr"
        },
        {
            "close_approach_date": "1948-03-28",
            "close_approach_date_full": "1948-Mar-28 03:30",
            "epoch_date_close_approach": -686781000000,
            "relative_velocity": {
                "kilometers_per_second": "20.9017299729",
                "kilometers_per_hour": "75246.2279024144",
                "miles_per_hour": "46755.0797763641"
            },
            "miss_distance": {
                "astronomical": "0.0900458866",
                "lunar": "35.0278498874",
                "kilometers": "13470672.837621542",
                "miles": "8370287.9658875996"
            },
            "orbiting_body": "Earth"
        },
        {
            "close_approach_date": "2018-04-12",
            "close_approach_date_full": "2018-Apr-12 06:09",
            "epoch_date_close_approach": 1523513340000,
            "relative_velocity": {
                "kilometers_per_second": "16.1273829939",
                "kilometers_per_hour": "58058.5787780148",
                "miles_per_hour": "36075.3430190393"
            },
            "miss_distance": {
                "astronomical": "0.0590687308",
                "lunar": "22.9777362812",
                "kilometers": "8836556.311283396",
                "miles": "5490781.4809110248"
            },
            "orbiting_body": "Earth"
        },
        {
            "close_approach_date": "2024-08-26",
            "close_approach_date_full": "2024-Aug-26 09:04",
            "epoch_date_close_approach": 1724663040000,
            "relative_velocity": {
                "kilometers_per_second": "8.0285259766",
                "kilometers_per_hour": "28902.6935158886",
                "miles_per_hour": "17959.0097571365"
            },
            "miss_distance": {
                "astronomical": "1.0220174421",
                "lunar": "397.5647849769",
                "kilometers": "152891632.441008327",
                "miles": "95002455.0764638326"
            },
            "orbiting_body": "Juptr"
        },
        {
            "close_approach_date": "2108-04-09",
            "close_approach_date_full": "2108-Apr-09 17:42",
            "epoch_date_close_approach": 4363436520000,
            "relative_velocity": {
                "kilometers_per_second": "8.5080542979",
                "kilometers_per_hour": "30628.9954723069",
                "miles_per_hour": "19031.6666588898"
            },
            "miss_distance": {
                "astronomical": "1.1059566861",
                "lunar": "430.2171508929",
                "kilometers": "165448764.552818607",
                "miles": "102805095.1575144966"
            },
            "orbiting_body": "Juptr"
        }
    ],
    "orbital_data": {
        "orbit_id": "4",
        "orbit_determination_date": "2018-04-09 06:33:00",
        "first_observation_date": "2018-03-19",
        "last_observation_date": "2018-04-09",
        "data_arc_in_days": 21,
        "observations_used": 21,
        "orbit_uncertainty": "7",
        "minimum_orbit_intersection": ".0251009",
        "jupiter_tisserand_invariant": "2.867",
        "epoch_osculation": "2458200.5",
        "eccentricity": ".7147107515206167",
        "semi_major_axis": "2.809840743607874",
        "inclination": "9.189859386921079",
        "ascending_node_longitude": "8.815782412764257",
        "orbital_period": "1720.366532406185",
        "perihelion_distance": ".8016173540906421",
        "perihelion_argument": "248.0493829765024",
        "aphelion_distance": "4.818064133125106",
        "perihelion_time": "2458258.002691777217",
        "mean_anomaly": "347.9671170940272",
        "mean_motion": ".209257732709138",
        "equinox": "J2000",
        "orbit_class": {
            "orbit_class_type": "APO",
            "orbit_class_description": "Near-Earth asteroid orbits which cross the Earth’s orbit similar to that of 1862 Apollo",
            "orbit_class_range": "a (semi-major axis) > 1.0 AU; q (perihelion) < 1.017 AU"
        }
    },
    "is_sentry_object": false
}